[{"OBJECT_NAME":"STARLINK-4617","OBJECT_ID":"2022-105AD","EPOCH":"2026-03-09T15:56:02.750208","MEAN_MOTION":15.05643926,"ECCENTRICITY":0.00021821,"INCLINATION":97.6021,"RA_OF_ASC_NODE":311.2583,"ARG_OF_PERICENTER":85.5517,"MEAN_ANOMALY":274.5959,"EPHEMERIS_TYPE":0,"CLASSIFICATION_TYPE":"U","NORAD_CAT_ID":53675,"ELEMENT_SET_NO":999,"REV_AT_EPOCH":19330,"BSTAR":-2.16156e-6,"MEAN_MOTION_DOT":-9.2e-7,"MEAN_MOTION_DDOT":0},{"OBJECT_NAME":"OBJECT H","OBJECT_ID":"2025-313H","EPOCH":"2026-03-09T22:36:06.294528","MEAN_MOTION":15.02722765,"ECCENTRICITY":0.0085698,"INCLINATION":97.296,"RA_OF_ASC_NODE":142.3052,"ARG_OF_PERICENTER":313.0136,"MEAN_ANOMALY":46.393,"EPHEMERIS_TYPE":0,"CLASSIFICATION_TYPE":"U","NORAD_CAT_ID":67255,"ELEMENT_SET_NO":999,"REV_AT_EPOCH":1072,"BSTAR":0.0002424576,"MEAN_MOTION_DOT":3.444e-5,"MEAN_MOTION_DDOT":0}]
